OBJECT_NAME,OBJECT_ID,EPOCH,MEAN_MOTION,ECCENTRICITY,INCLINATION,RA_OF_ASC_NODE,ARG_OF_PERICENTER,MEAN_ANOMALY,EPHEMERIS_TYPE,CLASSIFICATION_TYPE,NORAD_CAT_ID,ELEMENT_SET_NO,REV_AT_EPOCH,BSTAR,MEAN_MOTION_DOT,MEAN_MOTION_DDOT
CUBEBUG-2 (LO-74),2013-066AA,2026-07-14T20:38:50.433216,14.93965331,.0055738,97.8912,144.9614,296.4824,63.0685,0,U,39440,999,68112,.18584E-3,.1977E-4,0
FUNCUBE-1 (AO-73),2013-066AE,2026-07-14T19:53:22.220160,15.09814970,.0038005,97.8288,167.8602,108.8276,251.7080,0,U,39444,999,68383,.21317E-3,.3435E-4,0
UWE-3,2013-066AG,2026-07-14T19:39:20.660832,14.97197060,.0047493,97.8706,152.0848,225.7627,133.9691,0,U,39446,999,68171,.16664E-3,.1907E-4,0
UNISAT-6,2014-033C,2026-07-14T10:18:05.960160,14.88364829,.00442475,97.7907,347.6681,340.3441,19.6069,0,U,40012,999,65021,.12802781E-3,.1149E-4,0
DUCHIFAT-1,2014-033M,2026-07-14T15:51:18.732672,15.70920437,.0002763,98.0414,258.8180,248.3674,111.7293,0,U,40021,999,66005,.77166E-3,.97037E-3,0
QB50P1,2014-033R,2026-07-14T13:31:12.719424,15.18660627,.0010316,98.0961,208.6368,126.4314,233.7871,0,U,40025,999,65718,.21396E-3,.4361E-4,0
LILACSAT-2,2015-049K,2026-07-14T20:51:51.281856,15.52352030,.0008399,97.4624,233.7755,142.3468,217.8373,0,U,40908,999,60004,.19362E-3,.11713E-3,0
FOX-1A (AO-85),2015-058D,2026-07-14T17:13:50.205216,14.91086579,.0132322,64.7725,193.4176,45.9898,315.2028,0,U,40967,999,11767,.15662E-3,.1658E-4,0
CAS-2T & KS-1Q,2016-066G,2026-07-14T19:19:04.438272,14.44769868,.0342254,98.3814,271.2251,45.9444,316.9396,0,U,41847,999,50878,.84315E-4,.542E-5,0
RADFXSAT (FOX-1B),2017-073E,2026-07-14T14:09:34.362720,15.13055354,.0148235,97.4666,62.2466,233.5986,125.1498,0,U,43017,999,46953,.1845E-3,.4198E-4,0
DIWATA-2B,2018-084H,2026-07-14T20:15:39.415680,15.00562547,.0012853,98.1214,33.2637,85.4966,274.7724,0,U,43678,999,42036,.92649E-4,.1105E-4,0
ES'HAIL 2,2018-090A,2026-07-14T20:12:58.492224,1.00270700,.0002192,0.0180,39.9084,119.2005,102.6091,0,U,43700,999,2795,0,.135E-5,0
FOX-1CLIFF (AO-95),2018-099N,2026-07-14T15:58:47.584992,15.27266884,.0007215,97.4374,255.8190,242.1625,117.8883,0,U,43770,999,41741,.23813E-3,.6291E-4,0
ITASAT,2018-099AE,2026-07-14T16:26:25.626048,15.19378278,.001083,97.4014,246.6512,252.4754,107.5298,0,U,43786,999,41708,.18333E-3,.3815E-4,0
JY1SAT (JO-97),2018-099AX,2026-07-14T14:55:16.678848,15.34505872,.0006852,97.4121,258.5644,159.8317,200.3198,0,U,43803,999,41783,.27927E-3,.9262E-4,0
UWE-4,2018-111E,2026-07-14T18:29:30.308352,15.47799907,.0006092,97.5848,125.4664,196.0954,164.0103,0,U,43880,999,41504,.40605E-3,.21018E-3,0
TIANYAN 01,2019-093C,2026-07-14T20:15:58.802976,14.86561767,.0013661,97.7529,267.4009,2.9007,357.2286,0,U,44881,999,35552,.66747E-4,.539E-5,0
RS-44 & BREEZE-KM R/B,2019-096E,2026-07-14T20:05:59.204256,12.79748926,.0218536,82.5241,321.3319,79.8236,282.7434,0,U,44909,999,30588,-.55241E-4,-.1E-7,0
SALSAT,2020-068K,2026-07-14T13:10:14.011392,15.30166467,.0009148,97.8856,200.2874,195.2534,164.8431,0,U,46495,999,31954,.14541E-3,.4163E-4,0
XW-3 (CAS-9),2021-131B,2026-07-14T19:43:44.016672,14.41381597,.0004638,98.4992,288.0627,31.2562,328.8902,0,U,50466,999,23909,.10495E-3,.296E-5,0
GREENCUBE (IO-117),2022-080E,2026-07-14T06:21:38.972160,6.42583348,.00090541,70.1411,288.8296,283.5288,76.4363,0,U,53109,999,9380,0,-.3E-7,0
UMKA 1 (RS40S),2023-091G,2026-07-14T20:34:02.266752,15.21118981,.0013113,97.5038,254.4508,30.6450,329.5549,0,U,57172,999,16821,.15246E-3,.3328E-4,0
CUBESX-HSE 3 (RS42S),2023-091N,2026-07-14T19:27:07.267392,15.31878553,.0009703,97.5082,261.7575,3.4903,356.6404,0,U,57178,999,16865,.24591E-3,.7499E-4,0
MONITOR-3 (RS58S),2023-091Q,2026-07-14T19:57:38.448000,15.28368399,.0011025,97.5072,259.4883,10.9564,349.1913,0,U,57180,999,16851,.20982E-3,.5728E-4,0
MONITOR-4 (RS57S),2023-091S,2026-07-14T19:25:15.919392,15.28454875,.0011025,97.5066,259.4383,11.5479,348.6011,0,U,57182,999,16851,.21638E-3,.5926E-4,0
MONITOR-2 (RS39S),2023-091U,2026-07-14T20:20:35.205216,15.19152475,.0011455,97.5059,253.9536,25.2616,334.9176,0,U,57184,999,16815,.13262E-3,.2722E-4,0
SVYATOBOR 1 (RS60S),2023-091X,2026-07-14T20:19:23.687616,15.27059543,.0008779,97.5078,259.8229,5.8342,354.2998,0,U,57187,999,16853,.19066E-3,.499E-4,0
VIZARD-METEO (RS38S),2023-091Z,2026-07-14T19:50:04.511040,15.36867267,.0005709,97.5083,265.8802,341.2489,18.8544,0,U,57189,999,16893,.27391E-3,.9794E-4,0
POLYTECH-UNIVERSE 3 (RS46S),2023-091AB,2026-07-14T19:19:29.432064,15.19364660,.0016116,97.5035,253.4155,38.9522,321.2870,0,U,57191,999,16814,.13034E-3,.2695E-4,0
UTMN 2 (RS27S),2023-091AP,2026-07-14T19:31:00.611328,15.32696362,.0006775,97.5078,263.4275,351.7497,8.3632,0,U,57203,999,16877,.23727E-3,.7416E-4,0
